$$SOE
2461302.500000000, A.D. 2026-Sep-19 00:00:00.0000, 9.808614400725342E+07, 3.314087624039170E+08, 1.617398367917798E+07,
2461309.500000000, A.D. 2026-Sep-26 00:00:00.0000, 8.656857051045252E+07, 3.332623903235768E+08, 1.747969012975921E+07,
2461316.500000000, A.D. 2026-Oct-03 00:00:00.0000, 7.494841901668641E+07, 3.347212567839649E+08, 1.876468745856614E+07,
2461323.500000000, A.D. 2026-Oct-10 00:00:00.0000, 6.323848411014493E+07, 3.357793129002320E+08, 2.002721118294543E+07,
2461330.500000000, A.D. 2026-Oct-17 00:00:00.0000, 5.145195046354416E+07, 3.364308572261106E+08, 2.126548485786614E+07,
2461337.500000000, A.D. 2026-Oct-24 00:00:00.0000, 3.960239099877500E+07, 3.366705599439923E+08, 2.247772215586384E+07,
2461344.500000000, A.D. 2026-Oct-31 00:00:00.0000, 2.770376380267680E+07, 3.364934878336990E+08, 2.366212913294658E+07,
2461351.500000000, A.D. 2026-Nov-07 00:00:00.0000, 1.577040800712495E+07, 3.358951300516406E+08, 2.481690666547310E+07,
2461358.500000000, A.D. 2026-Nov-14 00:00:00.0000, 3.817038700790493E+06, 3.348714255565363E+08, 2.594025312203179E+07,
2461365.500000000, A.D. 2026-Nov-21 00:00:00.0000, -8.141261070263986E+06, 3.334187928005877E+08, 2.703036750126228E+07,
2461372.500000000, A.D. 2026-Nov-28 00:00:00.0000, -2.008905234097217E+07, 3.315341585871667E+08, 2.808545288825265E+07,
2461379.500000000, A.D. 2026-Dec-05 00:00:00.0000, -3.201055282486197E+07, 3.292149853304657E+08, 2.910371985013482E+07,
2461386.500000000, A.D. 2026-Dec-12 00:00:00.0000, -4.388965004016216E+07, 3.264592997135699E+08, 3.008339001454793E+07,
2461393.500000000, A.D. 2026-Dec-19 00:00:00.0000, -5.570991698144830E+07, 3.232657226074238E+08, 3.102270000590158E+07,
2461400.500000000, A.D. 2026-Dec-26 00:00:00.0000, -6.745463061412881E+07, 3.196334992196966E+08, 3.191990568206556E+07,
2461407.500000000, A.D. 2027-Jan-02 00:00:00.0000, -7.910679304514785E+07, 3.155625291117048E+08, 3.277328663063799E+07,
2461414.500000000, A.D. 2027-Jan-09 00:00:00.0000, -9.064915536676757E+07, 3.110533959175587E+08, 3.358115091323094E+07,
2461421.500000000, A.D. 2027-Jan-16 00:00:00.0000, -1.020642442358253E+08, 3.061073965639538E+08, 3.434184004831874E+07,
2461428.500000000, A.D. 2027-Jan-23 00:00:00.0000, -1.133343912273101E+08, 3.007265697144145E+08, 3.505373421375698E+07,
2461435.500000000, A.D. 2027-Jan-30 00:00:00.0000, -1.244417648465991E+08, 2.949137231322560E+08, 3.571525763319780E+07,
2461442.500000000, A.D. 2027-Feb-06 00:00:00.0000, -1.353684048307418E+08, 2.886724600284030E+08, 3.632488411841902E+07,
2461449.500000000, A.D. 2027-Feb-13 00:00:00.0000, -1.460962592322589E+08, 2.820072053285808E+08, 3.688114289064413E+07,
2461456.500000000, A.D. 2027-Feb-20 00:00:00.0000, -1.566072266513768E+08, 2.749232307757651E+08, 3.738262481110537E+07,
2461463.500000000, A.D. 2027-Feb-27 00:00:00.0000, -1.668832021796909E+08, 2.674266753386750E+08, 3.782798860214809E+07,
2461470.500000000, A.D. 2027-Mar-06 00:00:00.0000, -1.769061239697212E+08, 2.595245625099902E+08, 3.821596690602541E+07,
2461477.500000000, A.D. 2027-Mar-13 00:00:00.0000, -1.866580219370849E+08, 2.512248162145077E+08, 3.854537246011627E+07,
2461484.500000000, A.D. 2027-Mar-20 00:00:00.0000, -1.961210695822123E+08, 2.425362741625561E+08, 3.881510438322288E+07,
2461491.500000000, A.D. 2027-Mar-27 00:00:00.0000, -2.052776385444471E+08, 2.334686977624368E+08, 3.902415446380986E+07,
2461498.500000000, A.D. 2027-Apr-03 00:00:00.0000, -2.141103554612248E+08, 2.240327782132543E+08, 3.917161337844624E+07,
2461505.500000000, A.D. 2027-Apr-10 00:00:00.0000, -2.226021608042620E+08, 2.142401384844470E+08, 3.925667678439020E+07,
2461512.500000000, A.D. 2027-Apr-17 00:00:00.0000, -2.307363693601038E+08, 2.041033308701955E+08, 3.927865122798589E+07,
2461519.500000000, A.D. 2027-Apr-24 00:00:00.0000, -2.384967319217779E+08, 1.936358297839069E+08, 3.923695979904623E+07,
2461526.500000000, A.D. 2027-May-01 00:00:00.0000, -2.458674974956697E+08, 1.828520195787422E+08, 3.913114744677644E+07,
2461533.500000000, A.D. 2027-May-08 00:00:00.0000, -2.528334752804995E+08, 1.717671779372014E+08, 3.896088592991998E+07,
2461540.500000000, A.D. 2027-May-15 00:00:00.0000, -2.593800974468252E+08, 1.603974556211998E+08, 3.872597855622432E+07,
2461547.500000000, A.D. 2027-May-22 00:00:00.0000, -2.654934837860176E+08, 1.487598498840415E+08, 3.842636458454644E+07,
2461554.500000000, A.D. 2027-May-29 00:00:00.0000, -2.711605043415455E+08, 1.368721700264930E+08, 3.806212280450978E+07,
2461561.500000000, A.D. 2027-Jun-05 00:00:00.0000, -2.763688385786523E+08, 1.247529982243312E+08, 3.763347441188067E+07,
2461568.500000000, A.D. 2027-Jun-12 00:00:00.0000, -2.811070325471237E+08, 1.124216461178936E+08, 3.714078534811883E+07,
2461575.500000000, A.D. 2027-Jun-19 00:00:00.0000, -2.853645538153626E+08, 9.989810636604609E+07, 3.658456801353189E+07,
2461582.500000000, A.D. 2027-Jun-26 00:00:00.0000, -2.891318433400225E+08, 8.720299910697015E+07, 3.596548226747417E+07,
2461589.500000000, A.D. 2027-Jul-03 00:00:00.0000, -2.924003635962868E+08, 7.435751360131292E+07, 3.528433567096747E+07,
2461596.500000000, A.D. 2027-Jul-10 00:00:00.0000, -2.951626424152271E+08, 6.138334539967142E+07, 3.454208294376208E+07,
2461603.500000000, A.D. 2027-Jul-17 00:00:00.0000, -2.974123120098616E+08, 4.830262939318095E+07, 3.373982461261919E+07,
2461610.500000000, A.D. 2027-Jul-24 00:00:00.0000, -2.991441425946053E+08, 3.513786914212050E+07, 3.287880482371481E+07,
2461617.500000000, A.D. 2027-Jul-31 00:00:00.0000, -3.003540697989523E+08, 2.191186322997771E+07, 3.196040830247528E+07,
2461624.500000000, A.D. 2027-Aug-07 00:00:00.0000, -3.010392157469575E+08, 8.647630353106350E+06, 3.098615658470082E+07,
2461631.500000000, A.D. 2027-Aug-14 00:00:00.0000, -3.011979058429917E+08, -4.631666512011815E+06, 2.995770373041791E+07,
2461638.500000000, A.D. 2027-Aug-21 00:00:00.0000, -3.008296804649261E+08, -1.790279960219236E+07, 2.887683122035927E+07,
2461645.500000000, A.D. 2027-Aug-28 00:00:00.0000, -2.999352980286393E+08, -3.114255766481948E+07, 2.774544185986941E+07,
2461652.500000000, A.D. 2027-Sep-04 00:00:00.0000, -2.985167305642712E+08, -4.432782588978694E+07, 2.656555305107003E+07,
2461659.500000000, A.D. 2027-Sep-11 00:00:00.0000, -2.965771532340283E+08, -5.743566447617129E+07, 2.533928956143768E+07,
2461666.500000000, A.D. 2027-Sep-18 00:00:00.0000, -2.941209277740753E+08, -7.044338583254737E+07, 2.406887578451404E+07,
2461673.500000000, A.D. 2027-Sep-25 00:00:00.0000, -2.911535798146223E+08, -8.332862985793060E+07, 2.275662753218164E+07,
2461680.500000000, A.D. 2027-Oct-02 00:00:00.0000, -2.876817702531375E+08, -9.606943668768466E+07, 2.140494342582846E+07,
2461687.500000000, A.D. 2027-Oct-09 00:00:00.0000, -2.837132609871500E+08, -1.086443163715438E+08, 2.001629596140772E+07,
2461694.500000000, A.D. 2027-Oct-16 00:00:00.0000, -2.792568753476204E+08, -1.210323150463924E+08, 1.859322231921000E+07,
2461701.500000000, A.D. 2027-Oct-23 00:00:00.0000, -2.743224534312435E+08, -1.332130771614394E+08, 1.713831497546794E+07,
2461708.500000000, A.D. 2027-Oct-30 00:00:00.0000, -2.689208024489611E+08, -1.451669027508207E+08, 1.565421221074645E+07,
2461715.500000000, A.D. 2027-Nov-06 00:00:00.0000, -2.630636437690625E+08, -1.568747982952538E+08, 1.414358879060172E+07,
2461722.500000000, A.D. 2027-Nov-13 00:00:00.0000, -2.567635591751084E+08, -1.683185229910420E+08, 1.260914690428697E+07,
2461729.500000000, A.D. 2027-Nov-20 00:00:00.0000, -2.500339339910532E+08, -1.794806324281966E+08, 1.105360698674325E+07,
2461736.500000000, A.D. 2027-Nov-27 00:00:00.0000, -2.428888960192948E+08, -1.903445165952782E+08, 9.479698583790720E+06,
2461743.500000000, A.D. 2027-Dec-04 00:00:00.0000, -2.353432528715840E+08, -2.008944312398414E+08, 7.890151581367299E+06,
2461750.500000000, A.D. 2027-Dec-11 00:00:00.0000, -2.274124287836478E+08, -2.111155235534447E+08, 6.287687824565470E+06,
2461757.500000000, A.D. 2027-Dec-18 00:00:00.0000, -2.191124011599162E+08, -2.209938525889739E+08, 4.675013120703503E+06,
2461764.500000000, A.D. 2027-Dec-25 00:00:00.0000, -2.104596371973676E+08, -2.305164045387336E+08, 3.054809652959779E+06,
2461771.500000000, A.D. 2028-Jan-01 00:00:00.0000, -2.014710310201523E+08, -2.396711030316451E+08, 1.429728836139724E+06,
$$EOE